{"type": "FeatureCollection", "features": [ {"type": "Feature", "properties": {"norad_id": 66909, "name": "1998-067XV", "group": "stations", "lat": -21.945359204190606, "lon": 6.46068382387204, "alt_km": 414.2304967070586, "timestamp": "2025-12-07T14:37:04.011314+00:00", "meta": {"OBJECT_NAME": "1998-067XV", "OBJECT_ID": "1998-067XV", "EPOCH": "2025-12-06T22:15:20.702880", "MEAN_MOTION": 15.50597561, "ECCENTRICITY": 0.000527, "INCLINATION": 51.6296, "RA_OF_ASC_NODE": 171.2269, "ARG_OF_PERICENTER": 195.203, "MEAN_ANOMALY": 164.8802, "EPHEMERIS_TYPE": 0, "CLASSIFICATION_TYPE": "U", "NORAD_CAT_ID": 66909, "ELEMENT_SET_NO": 999, "REV_AT_EPOCH": 71, "BSTAR": 0.0013781016, "MEAN_MOTION_DOT": 0.00080732, "MEAN_MOTION_DDOT": 0}, "tle": {"line1": "1 66909U 98067XV  25340.92732295  .00080732  00000+0  13781-2 0  9994", "line2": "2 66909  51.6296 171.2269 0005270 195.2030 164.8802 15.50597561   714"}}, "geometry": {"type": "Point", "coordinates": [6.46068382387204, -21.945359204190606]}}, {"type": "Feature", "properties": {"norad_id": 66910, "name": "1998-067XW", "group": "stations", "lat": -25.6745862485768, "lon": 10.22187638190084, "alt_km": 413.7643885121952, "timestamp": "2025-12-07T14:37:04.011325+00:00", "meta": {"OBJECT_NAME": "1998-067XW", "OBJECT_ID": "1998-067XW", "EPOCH": "2025-12-06T22:14:11.406624", "MEAN_MOTION": 15.50834076, "ECCENTRICITY": 0.00061612, "INCLINATION": 51.6295, "RA_OF_ASC_NODE": 171.2216, "ARG_OF_PERICENTER": 180.8315, "MEAN_ANOMALY": 179.2665, "EPHEMERIS_TYPE": 0, "CLASSIFICATION_TYPE": "U", "NORAD_CAT_ID": 66910, "ELEMENT_SET_NO": 999, "REV_AT_EPOCH": 71, "BSTAR": 0.001191381, "MEAN_MOTION_DOT": 0.00070242, "MEAN_MOTION_DDOT": 0}, "tle": {"line1": "1 66910U 98067XW  25340.92652091  .00070242  00000+0  11914-2 0  9992", "line2": "2 66910  51.6295 171.2216 0006161 180.8315 179.2665 15.50834076   715"}}, "geometry": {"type": "Point", "coordinates": [10.22187638190084, -25.6745862485768]}}, {"type": "Feature", "properties": {"norad_id": 66911, "name": "1998-067XX", "group": "stations", "lat": -26.259716833559036, "lon": 10.842002862545073, "alt_km": 413.5579105945617, "timestamp": "2025-12-07T14:37:04.011335+00:00", "meta": {"OBJECT_NAME": "1998-067XX", "OBJECT_ID": "1998-067XX", "EPOCH": "2025-12-06T22:14:02.509152", "MEAN_MOTION": 15.50921454, "ECCENTRICITY": 0.00060774, "INCLINATION": 51.6294, "RA_OF_ASC_NODE": 171.2209, "ARG_OF_PERICENTER": 181.4841, "MEAN_ANOMALY": 178.6131, "EPHEMERIS_TYPE": 0, "CLASSIFICATION_TYPE": "U", "NORAD_CAT_ID": 66911, "ELEMENT_SET_NO": 999, "REV_AT_EPOCH": 70, "BSTAR": 0.0013962255, "MEAN_MOTION_DOT": 0.00082787, "MEAN_MOTION_DDOT": 0}, "tle": {"line1": "1 66911U 98067XX  25340.92641793  .00082787  00000+0  13962-2 0  9992", "line2": "2 66911  51.6294 171.2209 0006077 181.4841 178.6131 15.50921454   701"}}, "geometry": {"type": "Point", "coordinates": [10.842002862545073, -26.259716833559036]}}, {"type": "Feature", "properties": {"norad_id": 66912, "name": "1998-067XY", "group": "stations", "lat": -20.10453407857818, "lon": 4.707587245027012, "alt_km": 414.7681670786633, "timestamp": "2025-12-07T14:37:04.011345+00:00", "meta": {"OBJECT_NAME": "1998-067XY", "OBJECT_ID": "1998-067XY", "EPOCH": "2025-12-06T19:10:11.930016", "MEAN_MOTION": 15.50363521, "ECCENTRICITY": 0.00052356, "INCLINATION": 51.6299, "RA_OF_ASC_NODE": 171.8684, "ARG_OF_PERICENTER": 194.0341, "MEAN_ANOMALY": 166.0503, "EPHEMERIS_TYPE": 0, "CLASSIFICATION_TYPE": "U", "NORAD_CAT_ID": 66912, "ELEMENT_SET_NO": 999, "REV_AT_EPOCH": 68, "BSTAR": 0.0011553511, "MEAN_MOTION_DOT": 0.00066928, "MEAN_MOTION_DDOT": 0}, "tle": {"line1": "1 66912U 98067XY  25340.79874919  .00066928  00000+0  11554-2 0  9990", "line2": "2 66912  51.6299 171.8684 0005235 194.0341 166.0503 15.50363521   686"}}, "geometry": {"type": "Point", "coordinates": [4.707587245027012, -20.10453407857818]}}]}